SHIYAN-1 (SY-1)         
1 28220U 04012A   26182.20888014  .00018090  00000+0  54964-3 0  9999
2 28220  97.8690 261.1911 0004395 339.9341  20.1727 15.34119673213240
SINAH 1                 
1 28893U 05043D   26182.95207765  .00000357  00000+0  77214-4 0  9991
2 28893  98.2880 317.3623 0013510 226.3782 133.6301 14.64167791102682
SKYSAT-A                
1 39418U 13066C   26182.87323764  .00003541  00000+0  20305-3 0  9995
2 39418  97.3804 231.8027 0019705 262.5520  97.3473 15.13054240690705
SKYSAT-B                
1 40072U 14037D   26182.85135210  .00001418  00000+0  16092-3 0  9996
2 40072  98.3845 142.6529 0004544 220.1201 139.9679 14.88064613648144
SKYSAT-C1               
1 41601U 16040C   26182.34940905  .00011479  00000+0  32382-3 0  9998
2 41601  96.9551 213.3028 0001956  27.0572 333.0775 15.36540688560041
SENTINEL-5P             
1 42969U 17064A   26182.44004197  .00000065  00000+0  51758-4 0  9996
2 42969  98.7927 124.4701 0001044  90.9514 269.1781 14.19521372451582
SKYSAT-C10              
1 42988U 17068B   26182.89696740  .00010510  00000+0  31298-3 0  9993
2 42988  97.4525 319.8901 0001227 107.3220 252.8157 15.34885082484610
SENTINEL-3B             
1 43437U 18039A   26182.91698316  .00000127  00000+0  70487-4 0  9993
2 43437  98.6244 250.2376 0000825 117.4742 242.6522 14.26738948426223
SENTINEL-6A             
1 46984U 20086A   26182.91991155 -.00000054  00000+0  31851-4 0  9997
2 46984  66.0412 104.4533 0007831 269.9704  90.0414 12.80929961262216
SENTINEL-6B             
1 66514U 25264A   26182.92025946 -.00000052  00000+0  38362-4 0  9990
2 66514  66.0412 104.5787 0007913 268.8935  91.1174 12.80929981 29054
